NORAD_CAT_ID,OBJECT_NAME,OBJECT_TYPE,EPOCH,MEAN_MOTION,ECCENTRICITY,INCLINATION,RA_OF_ASC_NODE,ARG_OF_PERICENTER,MEAN_ANOMALY,BSTAR,MEAN_MOTION_DOT,MEAN_MOTION_DDOT,TLE_LINE0,TLE_LINE1,TLE_LINE2,SEMIMAJOR_AXIS,PERIOD,APOGEE,PERIGEE,DECAYED
53803.0,STARLINK-4727,PAYLOAD,2023-02-17 02:00:38,15.08833634,0.0001532,53.2156,221.9989,65.5306,294.5846,-0.00018209,-3.184e-05,0.0,0 STARLINK-4727,1 53803U 22111AG  23048.08378454 -.00003184  00000-0 -18209-3 0  9993,2 53803  53.2156 221.9989 0001532  65.5306 294.5846 15.08833634 24644,6917.9,95.438,540.825,538.705,0.0
53803.0,STARLINK-4727,PAYLOAD,2023-02-17 13:08:20,15.08838471,0.0001144,53.2159,219.9168,96.9305,263.1817,0.00027023,4.015e-05,0.0,0 STARLINK-4727,1 53803U 22111AG  23048.54746442  .00004015  00000-0  27023-3 0  9996,2 53803  53.2159 219.9168 0001144  96.9305 263.1817 15.08838471 25521,6917.885,95.438,540.541,538.959,0.0
53803.0,STARLINK-4727,PAYLOAD,2023-02-17 22:40:39,15.08842366,0.0001141,53.2161,218.1334,89.4404,270.6719,0.0012393,0.00019492,0.0,0 STARLINK-4727,1 53803U 22111AG  23048.94490629  .00019492  00000-0  12393-2 0  9991,2 53803  53.2161 218.1334 0001141  89.4404 270.6719 15.08842366 25582,6917.873,95.437,540.527,538.949,0.0
53803.0,STARLINK-4727,PAYLOAD,2023-02-18 11:23:45,15.08838568,0.0001178,53.2161,215.7537,89.9874,270.1253,0.00076826,0.0001196,0.0,0 STARLINK-4727,1 53803U 22111AG  23049.47483040  .00011960  00000-0  76826-3 0  9993,2 53803  53.2161 215.7537 0001178  89.9874 270.1253 15.08838568 24852,6917.885,95.438,540.565,538.935,0.0
53803.0,STARLINK-4727,PAYLOAD,2023-02-18 12:59:08,15.08838762,0.0001145,53.2162,215.4567,86.492,273.6203,0.00079828,0.00012439,0.0,0 STARLINK-4727,1 53803U 22111AG  23049.54107074  .00012439  00000-0  79828-3 0  9998,2 53803  53.2162 215.4567 0001145  86.4920 273.6203 15.08838762 25671,6917.884,95.438,540.541,538.957,0.0
53803.0,STARLINK-4727,PAYLOAD,2023-02-19 14:25:18,15.08850841,0.0001064,53.2166,210.6985,94.7502,265.3611,0.00066116,0.00010253,0.0,0 STARLINK-4727,1 53803U 22111AG  23050.60090875  .00010253  00000-0  66116-3 0  9995,2 53803  53.2166 210.6985 0001064  94.7502 265.3611 15.08850841 25835,6917.847,95.437,540.448,538.976,0.0
53803.0,STARLINK-4727,PAYLOAD,2023-02-19 16:00:41,15.08852612,0.0001083,53.2166,210.4013,90.406,269.7057,0.00073811,0.00011483,0.0,0 STARLINK-4727,1 53803U 22111AG  23050.66714858  .00011483  00000-0  73811-3 0  9991,2 53803  53.2166 210.4013 0001083  90.4060 269.7057 15.08852612 25030,6917.842,95.437,540.456,538.958,0.0
53803.0,STARLINK-4727,PAYLOAD,2023-02-20 03:08:23,15.08840151,0.0001535,53.2168,208.3194,87.3687,272.7481,0.0001389,1.923e-05,0.0,0 STARLINK-4727,1 53803U 22111AG  23051.13083047  .00001923  00000-0  13890-3 0  9992,2 53803  53.2168 208.3194 0001535  87.3687 272.7481 15.08840151 25108,6917.88,95.438,540.807,538.683,0.0
53803.0,STARLINK-4727,PAYLOAD,2023-02-20 20:37:38,15.08853776,0.0001281,53.217,205.049,89.0389,271.075,0.00083901,0.00013095,0.0,0 STARLINK-4727,1 53803U 22111AG  23051.85946787  .00013095  00000-0  83901-3 0  9993,2 53803  53.2170 205.0490 0001281  89.0389 271.0750 15.08853776 25210,6917.838,95.437,540.589,538.817,0.0
53803.0,STARLINK-4727,PAYLOAD,2023-02-21 18:53:01,15.08858098,0.0001804,53.2171,200.8854,76.0655,284.0538,0.00087052,0.000136,0.0,0 STARLINK-4727,1 53803U 22111AG  23052.78682801  .00013600  00000-0  87052-3 0  9993,2 53803  53.2171 200.8854 0001804  76.0655 284.0538 15.08858098 25356,6917.825,95.436,540.938,538.442,0.0
53803.0,STARLINK-4727,PAYLOAD,2023-02-21 22:03:47,15.08870756,0.0001294,53.2167,200.2916,92.4655,267.6485,0.0012835,0.00020215,0.0,0 STARLINK-4727,1 53803U 22111AG  23052.91930289  .00020215  00000-0  12835-2 0  9990,2 53803  53.2167 200.2916 0001294  92.4655 267.6485 15.08870756 25374,6917.786,95.436,540.547,538.756,0.0
53803.0,STARLINK-4727,PAYLOAD,2023-02-22 18:43:49,15.08849395,0.000204,53.2173,196.4263,75.3092,284.8127,0.00090429,0.00014137,0.0,0 STARLINK-4727,1 53803U 22111AG  23053.78042900  .00014137  00000-0  90429-3 0  9992,2 53803  53.2173 196.4263 0002040  75.3092 284.8127 15.08849395 25501,6917.852,95.437,541.128,538.305,0.0
53803.0,STARLINK-4727,PAYLOAD,2023-02-23 02:40:44,15.08836278,3.39e-05,53.2172,194.9395,99.9653,260.1377,4.6481e-05,4.52e-06,0.0,0 STARLINK-4727,1 53803U 22111AG  23054.11162490  .00000452  00000-0  46481-4 0  9992,2 53803  53.2172 194.9395 0000339  99.9653 260.1377 15.08836278 25558,6917.892,95.438,539.991,539.522,0.0
53803.0,STARLINK-4727,PAYLOAD,2023-02-23 09:02:17,15.08832753,0.0001138,53.216,193.7498,89.6582,270.454,0.00060768,9.395e-05,0.0,0 STARLINK-4727,1 53803U 22111AG  23054.37658591  .00009395  00000-0  60768-3 0  9990,2 53803  53.2160 193.7498 0001138  89.6582 270.4540 15.08832753 26406,6917.903,95.438,540.555,538.98,0.0
53803.0,STARLINK-4727,PAYLOAD,2023-02-23 15:23:50,15.08834126,0.0001146,53.2159,192.5614,88.9412,271.1711,0.0020225,0.00032042,0.0,0 STARLINK-4727,1 53803U 22111AG  23054.64155128  .00032042  00000-0  20225-2 0  9996,2 53803  53.2159 192.5614 0001146  88.9412 271.1711 15.08834126 26442,6917.898,95.438,540.556,538.971,0.0
53803.0,STARLINK-4727,PAYLOAD,2023-02-23 21:45:22,15.08859129,0.0001273,53.2158,191.3715,82.4232,277.6904,0.0017941,0.00028395,0.0,0 STARLINK-4727,1 53803U 22111AG  23054.90650883  .00028395  00000-0  17941-2 0  9990,2 53803  53.2158 191.3715 0001273  82.4232 277.6904 15.08859129 25679,6917.822,95.436,540.568,538.806,0.0
53803.0,STARLINK-4727,PAYLOAD,2023-02-24 13:39:14,15.08840755,0.0001364,53.2177,188.3977,72.6535,287.4606,0.0011854,0.00018628,0.0,0 STARLINK-4727,1 53803U 22111AG  23055.56891464  .00018628  00000-0  11854-2 0  9990,2 53803  53.2177 188.3977 0001364  72.6535 287.4606 15.08840755 25778,6917.878,95.438,540.687,538.799,0.0
53803.0,STARLINK-4727,PAYLOAD,2023-02-24 20:00:46,15.08851376,0.0001418,53.2182,187.2058,101.5212,258.5939,0.0012549,0.00019746,0.0,0 STARLINK-4727,1 53803U 22111AG  23055.83387155  .00019746  00000-0  12549-2 0  9991,2 53803  53.2182 187.2058 0001418 101.5212 258.5939 15.08851376 26620,6917.846,95.437,540.692,538.73,0.0
53803.0,STARLINK-4727,PAYLOAD,2023-02-25 11:54:38,15.08833683,0.0001386,53.2168,184.235,106.7656,253.3489,0.0012811,0.00020156,0.0,0 STARLINK-4727,1 53803U 22111AG  23056.49627948  .00020156  00000-0  12811-2 0  9990,2 53803  53.2168 184.2350 0001386 106.7656 253.3489 15.08833683 25914,6917.9,95.438,540.724,538.806,0.0
53803.0,STARLINK-4727,PAYLOAD,2023-02-25 19:51:34,15.08846597,0.0001371,53.218,182.7466,107.5444,252.5698,0.0013573,0.00021383,0.0,0 STARLINK-4727,1 53803U 22111AG  23056.82747867  .00021383  00000-0  13573-2 0  9999,2 53803  53.2180 182.7466 0001371 107.5444 252.5698 15.08846597 26773,6917.86,95.437,540.674,538.777,0.0
53803.0,STARLINK-4727,PAYLOAD,2023-02-26 11:45:24,15.08866378,0.0001569,53.2176,179.7717,119.6551,240.4598,0.0011702,0.00018398,0.0,0 STARLINK-4727,1 53803U 22111AG  23057.48987221  .00018398  00000-0  11702-2 0  9996,2 53803  53.2176 179.7717 0001569 119.6551 240.4598 15.08866378 26870,6917.8,95.436,540.75,538.579,0.0
53803.0,STARLINK-4727,PAYLOAD,2023-02-26 19:42:19,15.08884897,0.0001612,53.2177,178.2838,124.0733,236.0412,0.0015832,0.0002503,0.0,0 STARLINK-4727,1 53803U 22111AG  23057.82106299  .00025030  00000-0  15832-2 0  9991,2 53803  53.2177 178.2838 0001612 124.0733 236.0412 15.08884897 26119,6917.743,95.435,540.723,538.493,0.0
53803.0,STARLINK-4727,PAYLOAD,2023-02-27 00:28:30,15.0883906,0.00023,53.2178,177.3941,82.7957,277.3296,-0.00022785,-3.913e-05,0.0,0 STARLINK-4727,1 53803U 22111AG  23058.01979469 -.00003913  00000-0 -22785-3 0  9994,2 53803  53.2178 177.3941 0002300  82.7957 277.3296 15.08839060 26141,6917.883,95.438,541.339,538.157,0.0
53803.0,STARLINK-4727,PAYLOAD,2023-02-27 16:22:21,15.0886908,0.0001441,53.2188,174.4241,65.9909,294.1234,0.003181,0.00050743,0.0,0 STARLINK-4727,1 53803U 22111AG  23058.68218934  .00050743  00000-0  31810-2 0  9999,2 53803  53.2188 174.4241 0001441  65.9909 294.1234 15.08869080 26243,6917.792,95.436,540.653,538.66,0.0
53803.0,STARLINK-4727,PAYLOAD,2023-02-27 19:33:07,15.08883652,0.0001425,53.2183,173.8258,64.3571,295.7569,0.0033695,0.00053812,0.0,0 STARLINK-4727,1 53803U 22111AG  23058.81466549  .00053812  00000-0  33695-2 0  9994,2 53803  53.2183 173.8258 0001425  64.3571 295.7569 15.08883652 27070,6917.747,95.435,540.598,538.626,0.0
53803.0,STARLINK-4727,PAYLOAD,2023-02-28 06:40:49,15.08860067,9.24e-05,53.2169,171.7457,85.7642,274.3455,0.0011017,0.00017299,0.0,0 STARLINK-4727,1 53803U 22111AG  23059.27834631  .00017299  00000-0  11017-2 0  9999,2 53803  53.2169 171.7457 0000924  85.7642 274.3455 15.08860067 26331,6917.819,95.436,540.323,539.045,0.0
53803.0,STARLINK-4727,PAYLOAD,2023-02-28 13:02:21,15.08873832,9.77e-05,53.2163,170.5571,82.3882,277.7221,0.0026567,0.00042286,0.0,0 STARLINK-4727,1 53803U 22111AG  23059.54330375  .00042286  00000-0  26567-2 0  9995,2 53803  53.2163 170.5571 0000977  82.3882 277.7221 15.08873832 27182,6917.777,95.435,540.318,538.966,0.0
53803.0,STARLINK-4727,PAYLOAD,2023-02-28 17:48:30,15.08890077,0.0001035,53.2165,169.6644,82.5202,277.5908,0.0025838,0.0004113,0.0,0 STARLINK-4727,1 53803U 22111AG  23059.74201843  .00041130  00000-0  25838-2 0  9991,2 53803  53.2165 169.6644 0001035  82.5202 277.5908 15.08890077 27212,6917.727,95.434,540.308,538.876,0.0
53803.0,STARLINK-4727,PAYLOAD,2023-03-01 00:10:03,15.08796011,0.0001314,53.2172,168.476,108.8418,251.2717,0.0012408,0.00019491,0.0,0 STARLINK-4727,1 53803U 22111AG  23060.00698821  .00019491  00000-0  12408-2 0  9992,2 53803  53.2172 168.4760 0001314 108.8418 251.2717 15.08796011 26441,6918.015,95.44,540.789,538.971,0.0
53803.0,STARLINK-4727,PAYLOAD,2023-03-01 11:17:47,15.08796539,0.0001226,53.2168,166.3938,124.283,235.8278,0.0013101,0.00020599,0.0,0 STARLINK-4727,1 53803U 22111AG  23060.47068635  .00020599  00000-0  13101-2 0  9999,2 53803  53.2168 166.3938 0001226 124.2830 235.8278 15.08796539 26515,6918.013,95.44,540.726,539.03,0.0
